CAS-2T & KS-1Q          
1 41847U 16066G   21095.91244550  .00000120  00000-0  27522-4 0  9995
2 41847  98.6097 154.7110 0366426  76.9650 287.2170 14.38170183231452
NAYIF-1 (EO-88)         
1 42017U 17008BX  21095.87031518  .00002120  00000-0  80774-4 0  9995
2 42017  97.3221 164.7652 0006288  22.9086 337.2433 15.27798686230179
ZHUHAI-1 02 (CAS-4B)    
1 42759U 17034B   21095.81346998  .00000545  00000-0  46192-4 0  9997
2 42759  43.0175 220.4109 0008168  63.0082  72.8662 15.10142994210166
ZHUHAI-1 01 (CAS-4A)    
1 42761U 17034D   21095.80765142  .00000583  00000-0  48355-4 0  9990
2 42761  43.0173 219.5468 0008472  64.8567  66.6287 15.10224547210168
MAX VALIER SAT          
1 42778U 17036P   21095.85844077  .00001310  00000-0  57833-4 0  9990
2 42778  97.2642 146.8244 0013666  75.6357 284.6396 15.23379990210238
RADFXSAT (FOX-1B)       
1 43017U 17073E   21095.96714447  .00000475  00000-0  41983-4 0  9997
2 43017  97.7120   2.8192 0255411 176.5289 183.7775 14.79415462182407
FOX-1D (AO-92)          
1 43137U 18004AC  21095.76844142  .00001496  00000-0  62780-4 0  9991
2 43137  97.4113 170.5384 0010522 105.4565 254.7835 15.25003912179570
DIWATA-2B               
1 43678U 18084H   21095.94331025 -.00000172  00000-0 -11366-4 0  9996
2 43678  97.9110 220.8977 0008691 295.3752  64.6545 14.91725469132621
ES'HAIL 2               
1 43700U 18090A   21095.85362854  .00000123  00000-0  00000+0 0  9995
2 43700   0.0169 233.0778 0002790 183.9492 110.4401  1.00273762  8889
FOX-1CLIFF (AO-95)      
1 43770U 18099N   21095.91062168 -.00000036  00000-0  19588-5 0  9994
2 43770  97.6704 167.6835 0013222 303.3963  56.5992 14.95250554127612
ITASAT 1                
1 43786U 18099AE  21095.71048275 -.00000137  00000-0 -72153-5 0  9992
2 43786  97.6723 168.1150 0013808 296.5888  63.3918 14.95554509127616
JY1SAT (JO-97)          
1 43803U 18099AX  21095.95357686  .00000702  00000-0  67996-4 0  9991
2 43803  97.6687 168.1141 0013503 295.8004  64.1823 14.95787883127650
UWE-4                   
1 43880U 18111E   21095.18364605 -.00000043  00000-0  13055-5 0  9992
2 43880  97.6913   4.1537 0012333 356.9874   3.1271 14.96790524124125
PSAT2 (NO-104)          
1 44354U 19036R   21094.80563849  .00019846  00000-0  26828-3 0  9995
2 44354  28.5288 257.3976 0332655 198.5387 160.2825 15.11601422 97811
BRICSAT2 (NO-103)       
1 44355U 19036S   21095.69127660  .00030657  00000-0  35393-3 0  9991
2 44355  28.5267 217.3985 0279231 263.7374  93.1349 15.25443146 98285
JAISAT-1                
1 44419U 19038F   21094.86321633  .00001267  00000-0  74130-4 0  9996
2 44419  97.5810  59.8837 0020374 201.9393 158.0968 15.13550942 96666
DUCHIFAT-3              
1 44854U 19089C   21095.61013485  .00000679  00000-0  60733-4 0  9992
2 44854  36.9640 171.3854 0009093 274.1572  85.8142 14.99408989 72168
RS-44 & BREEZE-KM R/B   
1 44909U 19096E   21095.36972180  .00000006  00000-0 -12055-4 0  9998
2 44909  82.5231 161.3743 0216193 263.9280  93.7150 12.79709336 59518
ORBITAL FACTORY 2 (OF-2)
1 45113U 19071C   21095.12298883  .00002934  00000-0  95451-4 0  9996
2 45113  51.6431  32.9242 0012585  31.7068 328.4670 15.35217451 65908
HUSKYSAT-1 (HO-107)     
1 45119U 19071J   21095.85258741  .00002130  00000-0  72205-4 0  9991
2 45119  51.6432  28.7931 0011942  31.0952 329.0735 15.35292667 66018
BY70-2                  
1 45857U 20042B   21095.81490879  .00001316  00000-0  19465-3 0  9999
2 45857  97.9860 172.3191 0012890  91.5540 268.7130 14.76824254 40822
SALSAT                  
1 46495U 20068K   21095.24931145  .00000093  00000-0  11399-4 0  9999
2 46495  97.6862  33.2041 0016599 324.3449  35.6673 15.03386184 28335
BY70-3                  
1 46839U 20079N   21095.88417340  .00003483  00000-0  11092-3 0  9994
2 46839  97.2447 171.1885 0009016 104.7631 345.0391 15.33191349 23081
RADFXSAT-2 (AO-109)     
1 47311U 21002C   21095.87572760  .00000704  00000-0  42996-4 0  9995
2 47311  60.6871 202.8387 0024848   5.1642 354.9696 15.21426068 11830
UVSQ-SAT                
1 47438U 21006AB  21094.70920593  .00001015  00000-0  61128-4 0  9995
2 47438  97.4952 157.2305 0012585   0.4599 359.6641 15.12971517 10908
